{
    "links": {
        "self": "http://www.neowsapp.com/rest/v1/neo/3361550?api_key=iIulBulltgU6a56xZRHN4H3l9WmuAYTsLGpBGhQ2"
    },
    "id": "3361550",
    "neo_reference_id": "3361550",
    "name": "(2006 WQ127)",
    "designation": "2006 WQ127",
    "nasa_jpl_url": "http://ssd.jpl.nasa.gov/sbdb.cgi?sstr=3361550",
    "absolute_magnitude_h": 23.3,
    "estimated_diameter": {
        "kilometers": {
            "estimated_diameter_min": 0.058150704,
            "estimated_diameter_max": 0.130028927
        },
        "meters": {
            "estimated_diameter_min": 58.1507039646,
            "estimated_diameter_max": 130.0289270043
        },
        "miles": {
            "estimated_diameter_min": 0.0361331611,
            "estimated_diameter_max": 0.0807962044
        },
        "feet": {
            "estimated_diameter_min": 190.7831555951,
            "estimated_diameter_max": 426.6041048727
        }
    },
    "is_potentially_hazardous_asteroid": false,
    "close_approach_data": [
        {
            "close_approach_date": "2006-12-02",
            "close_approach_date_full": "2006-Dec-02 19:04",
            "epoch_date_close_approach": 1165086240000,
            "relative_velocity": {
                "kilometers_per_second": "17.9606563457",
                "kilometers_per_hour": "64658.3628443594",
                "miles_per_hour": "40176.1921795966"
            },
            "miss_distance": {
                "astronomical": "0.0201310408",
                "lunar": "7.8309748712",
                "kilometers": "3011560.824563096",
                "miles": "1871297.1231828848"
            },
            "orbiting_body": "Earth"
        },
        {
            "close_approach_date": "2008-06-26",
            "close_approach_date_full": "2008-Jun-26 08:11",
            "epoch_date_close_approach": 1214467860000,
            "relative_velocity": {
                "kilometers_per_second": "12.98270418",
                "kilometers_per_hour": "46737.7350480623",
                "miles_per_hour": "29041.0109802807"
            },
            "miss_distance": {
                "astronomical": "0.1248386686",
                "lunar": "48.5622420854",
                "kilometers": "18675598.916195882",
                "miles": "11604479.0596798916"
            },
            "orbiting_body": "Venus"
        }
    ],
    "orbital_data": {
        "orbit_id": "6",
        "orbit_determination_date": "2017-04-06 09:07:29",
        "first_observation_date": "2006-11-25",
        "last_observation_date": "2006-11-27",
        "data_arc_in_days": 2,
        "observations_used": 28,
        "orbit_uncertainty": "8",
        "minimum_orbit_intersection": ".011331",
        "jupiter_tisserand_invariant": "4.792",
        "epoch_osculation": "2454065.5",
        "eccentricity": ".5090271743644812",
        "semi_major_axis": "1.310225246431332",
        "inclination": "18.09562476659289",
        "ascending_node_longitude": "73.57637910460136",
        "orbital_period": "547.7941274080454",
        "perihelion_distance": ".643284991459385",
        "perihelion_argument": "87.40815185261823",
        "aphelion_distance": "1.977165501403279",
        "perihelion_time": "2454124.971791070932",
        "mean_anomaly": "320.9162571953102",
        "mean_motion": ".6571811963435678",
        "equinox": "J2000",
        "orbit_class": {
            "orbit_class_type": "APO",
            "orbit_class_description": "Near-Earth asteroid orbits which cross the Earth’s orbit similar to that of 1862 Apollo",
            "orbit_class_range": "a (semi-major axis) > 1.0 AU; q (perihelion) < 1.017 AU"
        }
    },
    "is_sentry_object": false
}